STARLINK-4788           
1 53863U 22114AX  24333.37492761  .00002974  00000+0  20485-3 0  9992
2 53863  53.2163 217.5211 0001457  72.1630 287.9521 15.08845798122714
STARLINK-4779           
1 53864U 22114AY  24333.39695343  .00001867  00000+0  13533-3 0  9992
2 53864  53.2159 216.9509 0001465  84.7632 275.3528 15.08843357122721
STARLINK-4785           
1 53865U 22114AZ  24334.16668981  .01226776  00000+0  15377-1 0  9992
2 53865  53.2109 210.1256 0000676  88.6669  60.8937 15.56649519122344
STARLINK-4762           
1 53866U 22114BA  24333.91774829 -.00000631  00000+0 -21530-4 0  9996
2 53866  53.2165 195.2592 0001438  99.4809 260.6346 15.08848540122533
STARLINK-4793           
1 53867U 22114BB  24334.03825664  .00002006  00000+0  14411-3 0  9990
2 53867  53.2168 204.5705 0001615  90.2586 269.8591 15.08836486122411
STARLINK-4789           
1 53868U 22114BC  24333.82203530  .00000668  00000+0  60063-4 0  9996
2 53868  53.2184 195.3900 0001547 104.7756 255.3408 15.08838325123061
STARLINK-4810           
1 53869U 22114BD  24333.93516221  .00001101  00000+0  87239-4 0  9990
2 53869  53.2175 204.6413 0001613 116.1299 243.9859 15.08845388122405
STARLINK-4732           
1 53870U 22114BE  24333.95820119  .00005410  00000+0  35794-3 0  9993
2 53870  53.2173 194.8049 0001488  77.0811 283.0347 15.08819442122549
STARLINK-4740           
1 53871U 22114BF  24333.66376122  .00000462  00000+0  47130-4 0  9992
2 53871  53.2169 195.8108 0001454  94.5154 265.6004 15.08836828123048
STARLINK-5028           
1 53886U 22119A   24334.16983628  .00001533  00000+0  11439-3 0  9996
2 53886  53.2177 254.1512 0001758  74.8891 285.2296 15.08835610120986
STARLINK-5029           
1 53887U 22119B   24333.49638014  .00000984  00000+0  79911-4 0  9997
2 53887  53.2185 257.0481 0002222  71.9402 288.1832 15.08838647121304
STARLINK-5034           
1 53888U 22119C   24334.16615744 -.00000153  00000+0  84530-5 0  9991
2 53888  53.2183 254.1294 0001347 100.4198 259.6946 15.08829076120988
STARLINK-5031           
1 53889U 22119D   24334.16246610 -.00002119  00000+0 -11509-3 0  9993
2 53889  53.2206 254.1103 0001874 119.8397 240.2781 15.08841479120988
STARLINK-5050           
1 53890U 22119E   24333.72588493  .00004422  00000+0  29577-3 0  9995
2 53890  53.2182 220.6916 0001653  99.4757 260.6422 15.08837892121838
STARLINK-5041           
1 53891U 22119F   24334.02261554 -.00000608  00000+0 -20104-4 0  9998
2 53891  53.2170 254.6460 0001032  76.5074 283.6034 15.08825232120968
STARLINK-5046           
1 53892U 22119G   24333.80547113  .00002711  00000+0  18834-3 0  9993
2 53892  53.2139 255.4265 0001713  95.6577 264.4611 15.08841781121351
STARLINK-5052           
1 53893U 22119H   24333.81748526  .00001548  00000+0  11532-3 0  9991
2 53893  53.2189 255.5025 0001666  81.6439 278.4742 15.08838024121357
STARLINK-5043           
1 53894U 22119J   24333.95268934  .00000302  00000+0  37113-4 0  9998
2 53894  53.2204 254.9298 0002296 132.1272 227.9916 15.08840806120956
STARLINK-5032           
1 53895U 22119K   24333.21299141  .00003081  00000+0  21151-3 0  9993
2 53895  53.2153 258.1255 0001358 106.7734 253.3407 15.08848892121263
STARLINK-5037           
1 53896U 22119L   24334.00050325  .00003214  00000+0  21990-3 0  9990
2 53896  53.2159 254.5133 0001824  90.7804 269.3397 15.08844630120960
STARLINK-5035           
1 53897U 22119M   24334.08148708  .00001578  00000+0  11724-3 0  9997
2 53897  53.2189 254.3162 0001410 101.7896 258.3254 15.08830657120974
STARLINK-5044           
1 53898U 22119N   24334.05570307  .00004234  00000+0  28408-3 0  9998
2 53898  53.2178 254.1472 0001575  92.4657 267.6515 15.08823382120978
STARLINK-5042           
1 53899U 22119P   24334.05937070  .00001837  00000+0  13346-3 0  9994
2 53899  53.2185 254.1636 0001258  94.0531 266.0605 15.08841544120979
STARLINK-5045           
1 53900U 22119Q   24334.04832503  .00000797  00000+0  68182-4 0  9994
2 53900  53.2184 254.0975 0001430  92.5082 267.6074 15.08828840120973
STARLINK-5024           
1 53901U 22119R   24333.79693497  .00039434  00000+0  24481-2 0  9995
2 53901  53.2157 255.3755 0001410 103.9391 256.1758 15.09342975121358
STARLINK-5021           
1 53902U 22119S   24334.04925581  .00001840  00000+0  13369-3 0  9991
2 53902  53.2178 204.2154 0001735  89.0560 271.0631 15.08840519121677
STARLINK-5022           
1 53903U 22119T   24333.79905906  .00000839  00000+0  70781-4 0  9991
2 53903  53.2151 255.3827 0001234  99.5102 260.6030 15.08839359121357
STARLINK-4787           
1 53904U 22119U   24333.77970922 -.00002862  00000+0 -16196-3 0  9999
2 53904  53.2173 255.2710 0001591  92.5912 267.5263 15.08800338121359
STARLINK-5003           
1 53905U 22119V   24334.03458743  .00000288  00000+0  36187-4 0  9993
2 53905  53.2173 244.7415 0001080 112.7498 247.3608 15.08844237121100
STARLINK-5054           
1 53906U 22119W   24334.05295041  .00013679  00000+0  87669-3 0  9994
2 53906  53.2190 244.1595 0001834  95.9836 264.1365 15.08806039121114
