OBJECT_NAME,OBJECT_ID,EPOCH,MEAN_MOTION,ECCENTRICITY,INCLINATION,RA_OF_ASC_NODE,ARG_OF_PERICENTER,MEAN_ANOMALY,EPHEMERIS_TYPE,CLASSIFICATION_TYPE,NORAD_CAT_ID,ELEMENT_SET_NO,REV_AT_EPOCH,BSTAR,MEAN_MOTION_DOT,MEAN_MOTION_DDOT
STARLINK-4788,2022-114AX,2024-11-28T08:59:53.745504,15.08845798,.0001457,53.2163,217.5211,72.1630,287.9521,0,U,53863,999,12271,.20485E-3,.2974E-4,0
STARLINK-4779,2022-114AY,2024-11-28T09:31:36.776352,15.08843357,.0001465,53.2159,216.9509,84.7632,275.3528,0,U,53864,999,12272,.13533E-3,.1867E-4,0
STARLINK-4785,2022-114AZ,2024-11-29T04:00:01.999584,15.56649519,.0000676,53.2109,210.1256,88.6669,60.8937,0,U,53865,999,12234,.15377E-1,.1226776E-1,0
STARLINK-4762,2022-114BA,2024-11-28T22:01:33.452256,15.08848540,.0001438,53.2165,195.2592,99.4809,260.6346,0,U,53866,999,12253,-.2153E-4,-.631E-5,0
STARLINK-4793,2022-114BB,2024-11-29T00:55:05.373696,15.08836486,.0001615,53.2168,204.5705,90.2586,269.8591,0,U,53867,999,12241,.14411E-3,.2006E-4,0
STARLINK-4789,2022-114BC,2024-11-28T19:43:43.849920,15.08838325,.0001547,53.2184,195.3900,104.7756,255.3408,0,U,53868,999,12306,.60063E-4,.668E-5,0
STARLINK-4810,2022-114BD,2024-11-28T22:26:38.014944,15.08845388,.0001613,53.2175,204.6413,116.1299,243.9859,0,U,53869,999,12240,.87239E-4,.1101E-4,0
STARLINK-4732,2022-114BE,2024-11-28T22:59:48.582816,15.08819442,.0001488,53.2173,194.8049,77.0811,283.0347,0,U,53870,999,12254,.35794E-3,.541E-4,0
STARLINK-4740,2022-114BF,2024-11-28T15:55:48.969408,15.08836828,.0001454,53.2169,195.8108,94.5154,265.6004,0,U,53871,999,12304,.4713E-4,.462E-5,0
STARLINK-5028,2022-119A,2024-11-29T04:04:33.854592,15.08835610,.0001758,53.2177,254.1512,74.8891,285.2296,0,U,53886,999,12098,.11439E-3,.1533E-4,0
STARLINK-5029,2022-119B,2024-11-28T11:54:47.244096,15.08838647,.0002222,53.2185,257.0481,71.9402,288.1832,0,U,53887,999,12130,.79911E-4,.984E-5,0
STARLINK-5034,2022-119C,2024-11-29T03:59:16.002816,15.08829076,.0001347,53.2183,254.1294,100.4198,259.6946,0,U,53888,999,12098,.8453E-5,-.153E-5,0
STARLINK-5031,2022-119D,2024-11-29T03:53:57.071040,15.08841479,.0001874,53.2206,254.1103,119.8397,240.2781,0,U,53889,999,12098,-.11509E-3,-.2119E-4,0
STARLINK-5050,2022-119E,2024-11-28T17:25:16.457952,15.08837892,.0001653,53.2182,220.6916,99.4757,260.6422,0,U,53890,999,12183,.29577E-3,.4422E-4,0
STARLINK-5041,2022-119F,2024-11-29T00:32:33.982656,15.08825232,.0001032,53.2170,254.6460,76.5074,283.6034,0,U,53891,999,12096,-.20104E-4,-.608E-5,0
STARLINK-5046,2022-119G,2024-11-28T19:19:52.705632,15.08841781,.0001713,53.2139,255.4265,95.6577,264.4611,0,U,53892,999,12135,.18834E-3,.2711E-4,0
STARLINK-5052,2022-119H,2024-11-28T19:37:10.726464,15.08838024,.0001666,53.2189,255.5025,81.6439,278.4742,0,U,53893,999,12135,.11532E-3,.1548E-4,0
STARLINK-5043,2022-119J,2024-11-28T22:51:52.358976,15.08840806,.0002296,53.2204,254.9298,132.1272,227.9916,0,U,53894,999,12095,.37113E-4,.302E-5,0
STARLINK-5032,2022-119K,2024-11-28T05:06:42.457824,15.08848892,.0001358,53.2153,258.1255,106.7734,253.3407,0,U,53895,999,12126,.21151E-3,.3081E-4,0
STARLINK-5037,2022-119L,2024-11-29T00:00:43.480800,15.08844630,.0001824,53.2159,254.5133,90.7804,269.3397,0,U,53896,999,12096,.2199E-3,.3214E-4,0
STARLINK-5035,2022-119M,2024-11-29T01:57:20.483712,15.08830657,.000141,53.2189,254.3162,101.7896,258.3254,0,U,53897,999,12097,.11724E-3,.1578E-4,0
STARLINK-5044,2022-119N,2024-11-29T01:20:12.745248,15.08823382,.0001575,53.2178,254.1472,92.4657,267.6515,0,U,53898,999,12097,.28408E-3,.4234E-4,0
STARLINK-5042,2022-119P,2024-11-29T01:25:29.628480,15.08841544,.0001258,53.2185,254.1636,94.0531,266.0605,0,U,53899,999,12097,.13346E-3,.1837E-4,0
STARLINK-5045,2022-119Q,2024-11-29T01:09:35.282592,15.08828840,.000143,53.2184,254.0975,92.5082,267.6074,0,U,53900,999,12097,.68182E-4,.797E-5,0
STARLINK-5024,2022-119R,2024-11-28T19:07:35.181408,15.09342975,.000141,53.2157,255.3755,103.9391,256.1758,0,U,53901,999,12135,.24481E-2,.39434E-3,0
STARLINK-5021,2022-119S,2024-11-29T01:10:55.701984,15.08840519,.0001735,53.2178,204.2154,89.0560,271.0631,0,U,53902,999,12167,.13369E-3,.184E-4,0
STARLINK-5022,2022-119T,2024-11-28T19:10:38.702784,15.08839359,.0001234,53.2151,255.3827,99.5102,260.6030,0,U,53903,999,12135,.70781E-4,.839E-5,0
STARLINK-4787,2022-119U,2024-11-28T18:42:46.876608,15.08800338,.0001591,53.2173,255.2710,92.5912,267.5263,0,U,53904,999,12135,-.16196E-3,-.2862E-4,0
STARLINK-5003,2022-119V,2024-11-29T00:49:48.353952,15.08844237,.000108,53.2173,244.7415,112.7498,247.3608,0,U,53905,999,12110,.36187E-4,.288E-5,0
STARLINK-5054,2022-119W,2024-11-29T01:16:14.915424,15.08806039,.0001834,53.2190,244.1595,95.9836,264.1365,0,U,53906,999,12111,.87669E-3,.13679E-3,0
